GPS BIII-4              
1 46826U 20078A   26072.77672522  .00000015  00000+0  00000+0 0  9992
2 46826  54.0000 214.6461 0068727 204.4855 325.5215  2.00565485 39593
GSAT0223 (GALILEO 27)   
1 49809U 21116A   26073.28386141 -.00000081  00000+0  00000+0 0  9990
2 49809  57.1915 344.2418 0001958 285.8605 269.7171  1.70475737 26566
GSAT0224 (GALILEO 28)   
1 49810U 21116B   26064.29072237 -.00000105  00000+0  00000+0 0  9998
2 49810  57.1948 344.4822 0001942 295.2728 253.6293  1.70475760 26438
GOES 18                 
1 51850U 22021A   26073.54133532  .00000096  00000+0  00000+0 0  9993
2 51850   0.0348  37.3150 0000807  24.6626 168.0462  1.00272820  5640
COSMOS 2557 (706K)      
1 52984U 22075A   26072.84916696 -.00000029  00000+0  00000+0 0  9990
2 52984  64.3539 317.8460 0011386 283.8913  76.0424  2.13102035 28686
METEOSAT-12 (MTG-I1)    
1 54743U 22170C   26073.35453059 -.00000008  00000+0  00000+0 0  9994
2 54743   0.7114  22.9393 0001749 291.7318 344.5795  1.00271337 12024
METEOR-M2 3             
1 57166U 23091A   26073.59545550  .00000002  00000+0  19679-4 0  9993
2 57166  98.6204 130.4607 0005098  88.0948 272.0815 14.24038155141055
COSMOS 2569 (703K)      
1 57517U 23114A   26072.99419750  .00000055  00000+0  00000+0 0  9995
2 57517  65.2480  75.8292 0012947 292.2655  67.6350  2.13103986 20236
METEOR-M2 4             
1 59051U 24039A   26073.64345834  .00000026  00000+0  31231-4 0  9994
2 59051  98.6911  34.1817 0008202  84.0351 276.1761 14.22418110105823
GSAT0225 (GALILEO 29)   
1 59598U 24079A   26073.38599072  .00000038  00000+0  00000+0 0  9998
2 59598  55.0556 103.7282 0002816 259.7008 104.1588  1.70475013 11709
GSAT0227 (GALILEO 30)   
1 59600U 24079C   26072.39006147  .00000031  00000+0  00000+0 0  9991
2 59600  55.0508 103.7545 0000363  35.4320 324.6432  1.70474883 11737
GSAT0232 (GALILEO 32)   
1 61182U 24167A   26048.66150565  .00000069  00000+0  00000+0 0  9995
2 61182  55.2225 224.5881 0003600 296.6314 116.1306  1.70443939  8265
GSAT0226 (GALILEO 31)   
1 61183U 24167B   26072.77594144  .00000035  00000+0  00000+0 0  9993
2 61183  55.2155 223.9355 0001584 137.4612  46.3182  1.70474359  9222
GSAT0233 (GALILEO 33)   
1 67160U 25302A   26044.50000000 -.00000008  00000+0  00000+0 0  9990
2 67160  54.3935 105.2952 0003011 207.0582 359.4109  1.70474578    20
GSAT0234 (GALILEO 34)   
1 67162U 25302C   26072.32105750  .00000028  00000+0  00000+0 0  9992
2 67162  54.2701 104.8613 0002786 225.0665 135.9201  1.70475046  1540
